*******************************************************************************
Ephemeris / WWW_USER Mon Mar 24 09:26:18 2025 Pasadena, USA      / Horizons    
*******************************************************************************
Target body name: ASASSN (C/2017 O1)              {source: JPL#21}
Center body name: Earth (399)                     {source: DE441}
Center-site name: Mauna Kea
*******************************************************************************
Start time      : A.D. 2018-Dec-31 04:03:00.0000 UT      
Stop  time      : A.D. 2018-Dec-31 16:46:00.0000 UT      
Step-size       : 1 minutes
*******************************************************************************
Target pole/equ : undefined
Target radii    : undefined                                                    
Center geodetic : 204.5278, 19.8260847, 4.21024   {E-lon(deg),Lat(deg),Alt(km)}
Center cylindric: 204.5278, 6006.35451, 2151.0229 {E-lon(deg),Dxy(km),Dz(km)}
Center pole/equ : ITRF93                          {East-longitude positive}
Center radii    : 6378.137, 6378.137, 6356.752 km {Equator_a, b, pole_c}       
Target primary  : Sun
Vis. interferer : MOON (R_eq= 1737.400) km        {source: DE441}
Rel. light bend : Sun                             {source: DE441}
Rel. lght bnd GM: 1.3271E+11 km^3/s^2                                          
Small-body perts: Yes                             {source: SB441-N16}
Atmos refraction: NO (AIRLESS)
RA format       : HMS
Time format     : CAL 
Calendar mode   : Mixed Julian/Gregorian
RTS-only print  : NO       
EOP file        : eop.250321.p250617                                           
EOP coverage    : DATA-BASED 1962-JAN-20 TO 2025-MAR-21. PREDICTS-> 2025-JUN-16
Units conversion: 1 au= 149597870.700 km, c= 299792.458 km/s, 1 day= 86400.0 s 
Table cut-offs 1: Elevation (-90.0deg=NO ),Airmass (>38.000=NO), Daylight (YES)
Table cut-offs 2: Solar elongation (  0.0,180.0=NO ),Local Hour Angle( 0.0=NO )
Table cut-offs 3: RA/DEC angular rate (     0.0=NO )                           
*******************************************************************************
Initial IAU76/J2000 heliocentric ecliptic osculating elements (au, days, deg.):
  EPOCH=  2458039.5 ! 2017-Oct-13.0000000 (TDB)    RMSW= n.a.                  
   EC= .9964254882304144   QR= 1.498687032290766   TP= 2458041.2851755521      
   OM= 25.80948799039273   W= 20.90785287564418    IN= 39.84841297991522       
  Equivalent ICRF heliocentric cartesian coordinates (au, au/d):
   X= 1.103880574170232E+00  Y= 7.544591652134763E-01  Z= 6.774428678789283E-01
  VX=-1.240653547490291E-02 VY= 4.322571932715848E-03 VZ= 1.488380440184248E-02
Comet physical (GM= km^3/s^2; RAD= km):                                        
   GM= n.a.                RAD= n.a.                                           
   M1=  12.4     M2=  n.a.     k1=  8.75   k2= n.a.     PHCOF= n.a.            
*******************************************************************************
 Date__(UT)__HR:MN     R.A._________(ICRF)_________DEC
******************************************************
$$SOE
 2018-Dec-31 06:08     12 52 29.020136 +24 06 42.59120
 2018-Dec-31 06:09     12 52 29.025585 +24 06 42.69945
 2018-Dec-31 06:10     12 52 29.031033 +24 06 42.80772
 2018-Dec-31 06:11     12 52 29.036479 +24 06 42.91600
 2018-Dec-31 06:12     12 52 29.041924 +24 06 43.02429
 2018-Dec-31 06:13     12 52 29.047368 +24 06 43.13260
 2018-Dec-31 06:14     12 52 29.052811 +24 06 43.24092
 2018-Dec-31 06:15     12 52 29.058252 +24 06 43.34926
 2018-Dec-31 06:16     12 52 29.063692 +24 06 43.45761
 2018-Dec-31 06:17     12 52 29.069130 +24 06 43.56598
 2018-Dec-31 06:18     12 52 29.074567 +24 06 43.67436
 2018-Dec-31 06:19     12 52 29.080003 +24 06 43.78275
 2018-Dec-31 06:20     12 52 29.085437 +24 06 43.89116
 2018-Dec-31 06:21     12 52 29.090870 +24 06 43.99958
 2018-Dec-31 06:22     12 52 29.096302 +24 06 44.10801
 2018-Dec-31 06:23     12 52 29.101732 +24 06 44.21646
 2018-Dec-31 06:24     12 52 29.107161 +24 06 44.32492
 2018-Dec-31 06:25     12 52 29.112588 +24 06 44.43340
 2018-Dec-31 06:26     12 52 29.118014 +24 06 44.54189
 2018-Dec-31 06:27     12 52 29.123439 +24 06 44.65039
 2018-Dec-31 06:28     12 52 29.128862 +24 06 44.75891
 2018-Dec-31 06:29     12 52 29.134284 +24 06 44.86744
 2018-Dec-31 06:30     12 52 29.139704 +24 06 44.97599
 2018-Dec-31 06:31     12 52 29.145123 +24 06 45.08455
 2018-Dec-31 06:32     12 52 29.150540 +24 06 45.19312
 2018-Dec-31 06:33     12 52 29.155955 +24 06 45.30170
 2018-Dec-31 06:34     12 52 29.161370 +24 06 45.41030
 2018-Dec-31 06:35     12 52 29.166782 +24 06 45.51892
 2018-Dec-31 06:36     12 52 29.172194 +24 06 45.62754
 2018-Dec-31 06:37     12 52 29.177603 +24 06 45.73618
 2018-Dec-31 06:38     12 52 29.183012 +24 06 45.84483
 2018-Dec-31 06:39     12 52 29.188418 +24 06 45.95350
 2018-Dec-31 06:40     12 52 29.193823 +24 06 46.06218
 2018-Dec-31 06:41     12 52 29.199227 +24 06 46.17087
 2018-Dec-31 06:42     12 52 29.204629 +24 06 46.27958
 2018-Dec-31 06:43     12 52 29.210029 +24 06 46.38830
 2018-Dec-31 06:44     12 52 29.215428 +24 06 46.49703
 2018-Dec-31 06:45     12 52 29.220825 +24 06 46.60578
 2018-Dec-31 06:46     12 52 29.226221 +24 06 46.71454
 2018-Dec-31 06:47     12 52 29.231615 +24 06 46.82331
 2018-Dec-31 06:48     12 52 29.237007 +24 06 46.93210
 2018-Dec-31 06:49     12 52 29.242398 +24 06 47.04090
 2018-Dec-31 06:50     12 52 29.247787 +24 06 47.14971
 2018-Dec-31 06:51     12 52 29.253174 +24 06 47.25854
 2018-Dec-31 06:52     12 52 29.258560 +24 06 47.36737
 2018-Dec-31 06:53     12 52 29.263944 +24 06 47.47622
 2018-Dec-31 06:54     12 52 29.269327 +24 06 47.58509
 2018-Dec-31 06:55     12 52 29.274708 +24 06 47.69397
 2018-Dec-31 06:56     12 52 29.280087 +24 06 47.80286
 2018-Dec-31 06:57     12 52 29.285464 +24 06 47.91176
 2018-Dec-31 06:58     12 52 29.290840 +24 06 48.02067
 2018-Dec-31 06:59     12 52 29.296214 +24 06 48.12960
 2018-Dec-31 07:00     12 52 29.301586 +24 06 48.23854
 2018-Dec-31 07:01     12 52 29.306957 +24 06 48.34750
 2018-Dec-31 07:02     12 52 29.312326 +24 06 48.45647
 2018-Dec-31 07:03     12 52 29.317693 +24 06 48.56545
 2018-Dec-31 07:04     12 52 29.323058 +24 06 48.67444
 2018-Dec-31 07:05     12 52 29.328422 +24 06 48.78344
 2018-Dec-31 07:06     12 52 29.333784 +24 06 48.89246
 2018-Dec-31 07:07     12 52 29.339144 +24 06 49.00149
 2018-Dec-31 07:08     12 52 29.344502 +24 06 49.11053
 2018-Dec-31 07:09     12 52 29.349859 +24 06 49.21959
 2018-Dec-31 07:10     12 52 29.355213 +24 06 49.32865
 2018-Dec-31 07:11     12 52 29.360566 +24 06 49.43773
 2018-Dec-31 07:12     12 52 29.365917 +24 06 49.54683
 2018-Dec-31 07:13     12 52 29.371267 +24 06 49.65593
 2018-Dec-31 07:14     12 52 29.376614 +24 06 49.76505
 2018-Dec-31 07:15     12 52 29.381960 +24 06 49.87418
 2018-Dec-31 07:16     12 52 29.387304 +24 06 49.98332
 2018-Dec-31 07:17     12 52 29.392645 +24 06 50.09247
 2018-Dec-31 07:18     12 52 29.397986 +24 06 50.20164
 2018-Dec-31 07:19     12 52 29.403324 +24 06 50.31082
 2018-Dec-31 07:20     12 52 29.408660 +24 06 50.42001
 2018-Dec-31 07:21     12 52 29.413995 +24 06 50.52921
 2018-Dec-31 07:22     12 52 29.419327 +24 06 50.63842
 2018-Dec-31 07:23     12 52 29.424658 +24 06 50.74765
 2018-Dec-31 07:24     12 52 29.429986 +24 06 50.85689
 2018-Dec-31 07:25     12 52 29.435313 +24 06 50.96614
 2018-Dec-31 07:26     12 52 29.440638 +24 06 51.07540
 2018-Dec-31 07:27     12 52 29.445961 +24 06 51.18467
 2018-Dec-31 07:28     12 52 29.451282 +24 06 51.29396
 2018-Dec-31 07:29     12 52 29.456601 +24 06 51.40325
 2018-Dec-31 07:30     12 52 29.461919 +24 06 51.51256
 2018-Dec-31 07:31     12 52 29.467234 +24 06 51.62188
 2018-Dec-31 07:32     12 52 29.472547 +24 06 51.73122
 2018-Dec-31 07:33     12 52 29.477858 +24 06 51.84056
 2018-Dec-31 07:34     12 52 29.483168 +24 06 51.94991
 2018-Dec-31 07:35     12 52 29.488475 +24 06 52.05928
 2018-Dec-31 07:36     12 52 29.493780 +24 06 52.16866
 2018-Dec-31 07:37     12 52 29.499084 +24 06 52.27805
 2018-Dec-31 07:38     12 52 29.504385 +24 06 52.38745
 2018-Dec-31 07:39     12 52 29.509684 +24 06 52.49686
 2018-Dec-31 07:40     12 52 29.514982 +24 06 52.60629
 2018-Dec-31 07:41     12 52 29.520277 +24 06 52.71572
 2018-Dec-31 07:42     12 52 29.525570 +24 06 52.82517
 2018-Dec-31 07:43     12 52 29.530861 +24 06 52.93463
 2018-Dec-31 07:44     12 52 29.536151 +24 06 53.04410
 2018-Dec-31 07:45     12 52 29.541438 +24 06 53.15358
 2018-Dec-31 07:46     12 52 29.546723 +24 06 53.26307
 2018-Dec-31 07:47     12 52 29.552006 +24 06 53.37257
 2018-Dec-31 07:48     12 52 29.557287 +24 06 53.48208
 2018-Dec-31 07:49     12 52 29.562565 +24 06 53.59161
 2018-Dec-31 07:50     12 52 29.567842 +24 06 53.70114
 2018-Dec-31 07:51     12 52 29.573117 +24 06 53.81069
 2018-Dec-31 07:52     12 52 29.578389 +24 06 53.92025
 2018-Dec-31 07:53     12 52 29.583660 +24 06 54.02981
 2018-Dec-31 07:54     12 52 29.588928 +24 06 54.13939
 2018-Dec-31 07:55     12 52 29.594194 +24 06 54.24898
 2018-Dec-31 07:56     12 52 29.599458 +24 06 54.35858
 2018-Dec-31 07:57     12 52 29.604720 +24 06 54.46819
 2018-Dec-31 07:58     12 52 29.609980 +24 06 54.57781
 2018-Dec-31 07:59     12 52 29.615238 +24 06 54.68745
 2018-Dec-31 08:00     12 52 29.620493 +24 06 54.79709
 2018-Dec-31 08:01     12 52 29.625747 +24 06 54.90674
 2018-Dec-31 08:02     12 52 29.630998 +24 06 55.01640
 2018-Dec-31 08:03     12 52 29.636247 +24 06 55.12608
 2018-Dec-31 08:04     12 52 29.641494 +24 06 55.23576
 2018-Dec-31 08:05     12 52 29.646738 +24 06 55.34546
 2018-Dec-31 08:06     12 52 29.651981 +24 06 55.45516
 2018-Dec-31 08:07     12 52 29.657221 +24 06 55.56488
 2018-Dec-31 08:08     12 52 29.662459 +24 06 55.67460
 2018-Dec-31 08:09     12 52 29.667695 +24 06 55.78434
 2018-Dec-31 08:10     12 52 29.672928 +24 06 55.89408
 2018-Dec-31 08:11     12 52 29.678160 +24 06 56.00384
 2018-Dec-31 08:12     12 52 29.683389 +24 06 56.11360
